CCSDS_OMM_VERS = 2.0
CREATION_DATE  = 
ORIGINATOR     = 

OBJECT_NAME    = TRANSPORTER-15Y
OBJECT_ID      = 2025-276Y
CENTER_NAME    = EARTH
REF_FRAME      = TEME
TIME_SYSTEM    = UTC
MEAN_ELEMENT_THEORY = SGP/SGP4

EPOCH          = 2025-12-25T12:54:40.837824
MEAN_MOTION    = 15.17117879
ECCENTRICITY   = .0003764
INCLINATION    = 97.4426
RA_OF_ASC_NODE = 71.0715
ARG_OF_PERICENTER = 234.2435
MEAN_ANOMALY   = 125.8449

EPHEMERIS_TYPE = 0
CLASSIFICATION_TYPE = U
NORAD_CAT_ID   = 66688
ELEMENT_SET_NO = 999
REV_AT_EPOCH   = 406
BSTAR          = .56854E-3
MEAN_MOTION_DOT = .11216E-3
MEAN_MOTION_DDOT = 0

CCSDS_OMM_VERS = 2.0
CREATION_DATE  = 
ORIGINATOR     = 

OBJECT_NAME    = TRANSPORTER-15Z
OBJECT_ID      = 2025-276Z
CENTER_NAME    = EARTH
REF_FRAME      = TEME
TIME_SYSTEM    = UTC
MEAN_ELEMENT_THEORY = SGP/SGP4

EPOCH          = 2025-12-22T21:27:46.425312
MEAN_MOTION    = 15.23073772
ECCENTRICITY   = .00272271
INCLINATION    = 97.4409
RA_OF_ASC_NODE = 68.4858
ARG_OF_PERICENTER = 260.8557
MEAN_ANOMALY   = 98.9599

EPHEMERIS_TYPE = 0
CLASSIFICATION_TYPE = U
NORAD_CAT_ID   = 66689
ELEMENT_SET_NO = 999
REV_AT_EPOCH   = 366
BSTAR          = .86131248E-1
MEAN_MOTION_DOT = .2294864E-1
MEAN_MOTION_DDOT = 0

CCSDS_OMM_VERS = 2.0
CREATION_DATE  = 
ORIGINATOR     = 

OBJECT_NAME    = TRANSPORTER-15AA
OBJECT_ID      = 2025-276AA
CENTER_NAME    = EARTH
REF_FRAME      = TEME
TIME_SYSTEM    = UTC
MEAN_ELEMENT_THEORY = SGP/SGP4

EPOCH          = 2025-12-26T06:19:35.681952
MEAN_MOTION    = 15.17102796
ECCENTRICITY   = .00036848
INCLINATION    = 97.4387
RA_OF_ASC_NODE = 71.7711
ARG_OF_PERICENTER = 231.5482
MEAN_ANOMALY   = 128.5421

EPHEMERIS_TYPE = 0
CLASSIFICATION_TYPE = U
NORAD_CAT_ID   = 66690
ELEMENT_SET_NO = 999
REV_AT_EPOCH   = 417
BSTAR          = .45953175E-3
MEAN_MOTION_DOT = .9046E-4
MEAN_MOTION_DDOT = 0

CCSDS_OMM_VERS = 2.0
CREATION_DATE  = 
ORIGINATOR     = 

OBJECT_NAME    = TRANSPORTER-15AB
OBJECT_ID      = 2025-276AB
CENTER_NAME    = EARTH
REF_FRAME      = TEME
TIME_SYSTEM    = UTC
MEAN_ELEMENT_THEORY = SGP/SGP4

EPOCH          = 2025-12-26T04:40:55.637760
MEAN_MOTION    = 15.17368910
ECCENTRICITY   = .00037841
INCLINATION    = 97.4412
RA_OF_ASC_NODE = 71.7179
ARG_OF_PERICENTER = 233.5315
MEAN_ANOMALY   = 126.5570

EPHEMERIS_TYPE = 0
CLASSIFICATION_TYPE = U
NORAD_CAT_ID   = 66691
ELEMENT_SET_NO = 999
REV_AT_EPOCH   = 416
BSTAR          = .57033489E-3
MEAN_MOTION_DOT = .11333E-3
MEAN_MOTION_DDOT = 0

CCSDS_OMM_VERS = 2.0
CREATION_DATE  = 
ORIGINATOR     = 

OBJECT_NAME    = TRANSPORTER-15AC
OBJECT_ID      = 2025-276AC
CENTER_NAME    = EARTH
REF_FRAME      = TEME
TIME_SYSTEM    = UTC
MEAN_ELEMENT_THEORY = SGP/SGP4

EPOCH          = 2025-12-26T04:36:08.314560
MEAN_MOTION    = 15.17447229
ECCENTRICITY   = .00017803
INCLINATION    = 97.4413
RA_OF_ASC_NODE = 71.7258
ARG_OF_PERICENTER = 246.4774
MEAN_ANOMALY   = 113.6272

EPHEMERIS_TYPE = 0
CLASSIFICATION_TYPE = U
NORAD_CAT_ID   = 66692
ELEMENT_SET_NO = 999
REV_AT_EPOCH   = 416
BSTAR          = .30393663E-3
MEAN_MOTION_DOT = .6017E-4
MEAN_MOTION_DDOT = 0

CCSDS_OMM_VERS = 2.0
CREATION_DATE  = 
ORIGINATOR     = 

OBJECT_NAME    = TRANSPORTER-15AD
OBJECT_ID      = 2025-276AD
CENTER_NAME    = EARTH
REF_FRAME      = TEME
TIME_SYSTEM    = UTC
MEAN_ELEMENT_THEORY = SGP/SGP4

EPOCH          = 2025-12-26T06:10:26.609952
MEAN_MOTION    = 15.17714122
ECCENTRICITY   = .00032262
INCLINATION    = 97.4367
RA_OF_ASC_NODE = 71.7700
ARG_OF_PERICENTER = 258.9833
MEAN_ANOMALY   = 101.1038

EPHEMERIS_TYPE = 0
CLASSIFICATION_TYPE = U
NORAD_CAT_ID   = 66693
ELEMENT_SET_NO = 999
REV_AT_EPOCH   = 417
BSTAR          = .7483531E-3
MEAN_MOTION_DOT = .15046E-3
MEAN_MOTION_DDOT = 0

CCSDS_OMM_VERS = 2.0
CREATION_DATE  = 
ORIGINATOR     = 

OBJECT_NAME    = YAM-9
OBJECT_ID      = 2025-276AE
CENTER_NAME    = EARTH
REF_FRAME      = TEME
TIME_SYSTEM    = UTC
MEAN_ELEMENT_THEORY = SGP/SGP4

EPOCH          = 2025-12-26T06:08:06.045792
MEAN_MOTION    = 15.17620639
ECCENTRICITY   = .00014604
INCLINATION    = 97.4413
RA_OF_ASC_NODE = 71.7885
ARG_OF_PERICENTER = 234.9682
MEAN_ANOMALY   = 125.1415

EPHEMERIS_TYPE = 0
CLASSIFICATION_TYPE = U
NORAD_CAT_ID   = 66694
ELEMENT_SET_NO = 999
REV_AT_EPOCH   = 417
BSTAR          = .50628216E-3
MEAN_MOTION_DOT = .10122E-3
MEAN_MOTION_DDOT = 0

CCSDS_OMM_VERS = 2.0
CREATION_DATE  = 
ORIGINATOR     = 

OBJECT_NAME    = IRIDE FM1
OBJECT_ID      = 2025-276AF
CENTER_NAME    = EARTH
REF_FRAME      = TEME
TIME_SYSTEM    = UTC
MEAN_ELEMENT_THEORY = SGP/SGP4

EPOCH          = 2025-12-26T04:15:46.412064
MEAN_MOTION    = 15.18318094
ECCENTRICITY   = .00012847
INCLINATION    = 97.4385
RA_OF_ASC_NODE = 71.7357
ARG_OF_PERICENTER = 125.5692
MEAN_ANOMALY   = 234.5662

EPHEMERIS_TYPE = 0
CLASSIFICATION_TYPE = U
NORAD_CAT_ID   = 66695
ELEMENT_SET_NO = 999
REV_AT_EPOCH   = 416
BSTAR          = .88332893E-3
MEAN_MOTION_DOT = .18088E-3
MEAN_MOTION_DDOT = 0

CCSDS_OMM_VERS = 2.0
CREATION_DATE  = 
ORIGINATOR     = 

OBJECT_NAME    = IRIDE FM2
OBJECT_ID      = 2025-276AG
CENTER_NAME    = EARTH
REF_FRAME      = TEME
TIME_SYSTEM    = UTC
MEAN_ELEMENT_THEORY = SGP/SGP4

EPOCH          = 2025-12-26T06:12:06.572160
MEAN_MOTION    = 15.17458783
ECCENTRICITY   = .00024662
INCLINATION    = 97.4383
RA_OF_ASC_NODE = 71.7749
ARG_OF_PERICENTER = 249.6402
MEAN_ANOMALY   = 110.4567

EPHEMERIS_TYPE = 0
CLASSIFICATION_TYPE = U
NORAD_CAT_ID   = 66696
ELEMENT_SET_NO = 999
REV_AT_EPOCH   = 417
BSTAR          = .34274955E-3
MEAN_MOTION_DOT = .6797E-4
MEAN_MOTION_DDOT = 0

CCSDS_OMM_VERS = 2.0
CREATION_DATE  = 
ORIGINATOR     = 

OBJECT_NAME    = IRIDE FM3
OBJECT_ID      = 2025-276AH
CENTER_NAME    = EARTH
REF_FRAME      = TEME
TIME_SYSTEM    = UTC
MEAN_ELEMENT_THEORY = SGP/SGP4

EPOCH          = 2025-12-26T05:52:39.299520
MEAN_MOTION    = 15.18221120
ECCENTRICITY   = .00014734
INCLINATION    = 97.4382
RA_OF_ASC_NODE = 71.7931
ARG_OF_PERICENTER = 149.4613
MEAN_ANOMALY   = 210.6708

EPHEMERIS_TYPE = 0
CLASSIFICATION_TYPE = U
NORAD_CAT_ID   = 66697
ELEMENT_SET_NO = 999
REV_AT_EPOCH   = 417
BSTAR          = .45073976E-3
MEAN_MOTION_DOT = .9161E-4
MEAN_MOTION_DDOT = 0

CCSDS_OMM_VERS = 2.0
CREATION_DATE  = 
ORIGINATOR     = 

OBJECT_NAME    = IRIDE FM4
OBJECT_ID      = 2025-276AJ
CENTER_NAME    = EARTH
REF_FRAME      = TEME
TIME_SYSTEM    = UTC
MEAN_ELEMENT_THEORY = SGP/SGP4

EPOCH          = 2025-12-26T06:00:02.999808
MEAN_MOTION    = 15.17404857
ECCENTRICITY   = .00027603
INCLINATION    = 97.4384
RA_OF_ASC_NODE = 71.7657
ARG_OF_PERICENTER = 240.7634
MEAN_ANOMALY   = 67.8941

EPHEMERIS_TYPE = 0
CLASSIFICATION_TYPE = U
NORAD_CAT_ID   = 66698
ELEMENT_SET_NO = 999
REV_AT_EPOCH   = 130
BSTAR          = -.10052488E-2
MEAN_MOTION_DOT = -.2009E-3
MEAN_MOTION_DDOT = 0

CCSDS_OMM_VERS = 2.0
CREATION_DATE  = 
ORIGINATOR     = 

OBJECT_NAME    = IRIDE FM5
OBJECT_ID      = 2025-276AK
CENTER_NAME    = EARTH
REF_FRAME      = TEME
TIME_SYSTEM    = UTC
MEAN_ELEMENT_THEORY = SGP/SGP4

EPOCH          = 2025-12-26T06:13:10.751808
MEAN_MOTION    = 15.17428723
ECCENTRICITY   = .00030633
INCLINATION    = 97.4403
RA_OF_ASC_NODE = 71.7808
ARG_OF_PERICENTER = 238.1284
MEAN_ANOMALY   = 121.9651

EPHEMERIS_TYPE = 0
CLASSIFICATION_TYPE = U
NORAD_CAT_ID   = 66699
ELEMENT_SET_NO = 999
REV_AT_EPOCH   = 417
BSTAR          = .78252375E-3
MEAN_MOTION_DOT = .15609E-3
MEAN_MOTION_DDOT = 0

