TRANSPORTER-15Y         
1 66688U 25276Y   25359.53797266  .00011216  00000+0  56854-3 0  9996
2 66688  97.4426  71.0715 0003764 234.2435 125.8449 15.17117879  4062
TRANSPORTER-15Z         
1 66689U 25276Z   25356.89428733  .02294864  00000+0  86131-1 0  9996
2 66689  97.4409  68.4858 0027227 260.8557  98.9599 15.23073772  3663
TRANSPORTER-15AA        
1 66690U 25276AA  25360.26360743  .00009046  00000+0  45953-3 0  9993
2 66690  97.4387  71.7711 0003684 231.5482 128.5421 15.17102796  4171
TRANSPORTER-15AB        
1 66691U 25276AB  25360.19508840  .00011333  00000+0  57033-3 0  9992
2 66691  97.4412  71.7179 0003784 233.5315 126.5570 15.17368910  4161
TRANSPORTER-15AC        
1 66692U 25276AC  25360.19176290  .00006017  00000+0  30394-3 0  9997
2 66692  97.4413  71.7258 0001780 246.4774 113.6272 15.17447229  4164
TRANSPORTER-15AD        
1 66693U 25276AD  25360.25725243  .00015046  00000+0  74835-3 0  9993
2 66693  97.4367  71.7700 0003226 258.9833 101.1038 15.17714122  4178
YAM-9                   
1 66694U 25276AE  25360.25562553  .00010122  00000+0  50628-3 0  9991
2 66694  97.4413  71.7885 0001460 234.9682 125.1415 15.17620639  4173
IRIDE FM1               
1 66695U 25276AF  25360.17762051  .00018088  00000+0  88333-3 0  9991
2 66695  97.4385  71.7357 0001284 125.5692 234.5662 15.18318094  4164
IRIDE FM2               
1 66696U 25276AG  25360.25840940  .00006797  00000+0  34275-3 0  9995
2 66696  97.4383  71.7749 0002466 249.6402 110.4567 15.17458783  4174
IRIDE FM3               
1 66697U 25276AH  25360.24489930  .00009161  00000+0  45074-3 0  9990
2 66697  97.4382  71.7931 0001473 149.4613 210.6708 15.18221120  4179
IRIDE FM4               
1 66698U 25276AJ  25360.25003472 -.00020090  00000+0 -10052-2 0  9998
2 66698  97.4384  71.7657 0002760 240.7634  67.8941 15.17404857  1307
IRIDE FM5               
1 66699U 25276AK  25360.25915222  .00015609  00000+0  78252-3 0  9999
2 66699  97.4403  71.7808 0003063 238.1284 121.9651 15.17428723  4173
